IRIDIUM 155             
1 43573U 18061E   25176.17535347  .00000120  00000+0  35744-4 0  9993
2 43573  86.3983 205.8362 0002442  85.8546 274.2929 14.34217641362183
IRIDIUM 154             
1 43574U 18061F   25176.36563069  .00000043  00000+0  83450-5 0  9999
2 43574  86.3985 205.8722 0002306  90.7588 269.3872 14.34217915362261
IRIDIUM 163             
1 43575U 18061G   25176.34660354  .00000178  00000+0  56514-4 0  9992
2 43575  86.3982 205.8068 0002463  92.5091 267.6387 14.34218049362233
IRIDIUM 156             
1 43576U 18061H   25176.32123242 -.00000006  00000+0 -91606-5 0  9995
2 43576  86.3987 205.8242 0002286  82.0188 278.1267 14.34217695362226
IRIDIUM 164             
1 43577U 18061J   25176.02313031  .00000087  00000+0  23870-4 0  9994
2 43577  86.3984 205.9834 0002067  90.2459 269.8973 14.34218081362222
IRIDIUM 159             
1 43578U 18061K   25176.47979733  .00000021  00000+0  27467-6 0  9997
2 43578  86.3981 205.7368 0002248  96.7265 263.4186 14.34217732362258
IRIDIUM 180             
1 43922U 19002A   25176.33975673  .00000024  00000+0  15394-5 0  9998
2 43922  86.3988 142.7766 0002402  87.3842 272.7628 14.34217795337849
IRIDIUM 176             
1 43923U 19002B   25176.39649992  .00000589  00000+0  89465-4 0  9992
2 43923  86.6113 142.7453 0003205  82.7127 277.4454 14.72253214346750
IRIDIUM 168             
1 43924U 19002C   25176.61248811  .00000069  00000+0  17659-4 0  9992
2 43924  86.3991 142.7298 0002333  85.9804 274.1659 14.34217671337865
IRIDIUM 173             
1 43925U 19002D   25176.59980354 -.00000014  00000+0 -12007-4 0  9999
2 43925  86.3989 142.6389 0002379  85.7857 274.3610 14.34217373337845
IRIDIUM 169             
1 43926U 19002E   25176.57025424  .00000114  00000+0  30856-4 0  9997
2 43926  86.4250 174.2330 0003594  73.1409 287.0183 14.38609917338951
IRIDIUM 172             
1 43927U 19002F   25176.38415507  .00000003  00000+0 -60970-5 0  9991
2 43927  86.3989 142.7356 0002289  92.8205 267.3253 14.34217549337826
IRIDIUM 175             
1 43928U 19002G   25176.52740568  .00000605  00000+0  91951-4 0  9995
2 43928  86.1502  94.7321 0002428  62.3109 297.8353 14.72239089346761
IRIDIUM 171             
1 43929U 19002H   25176.36512650  .00000019  00000+0 -31962-6 0  9995
2 43929  86.3996 143.0102 0002050  80.7996 279.3432 14.34217556337817
IRIDIUM 170             
1 43930U 19002J   25176.60658850  .00000588  00000+0  89321-4 0  9997
2 43930  86.6112 142.6622 0002774  80.7547 279.3984 14.72255377346793
IRIDIUM 167             
1 43931U 19002K   25176.35878409  .00000001  00000+0 -66774-5 0  9993
2 43931  86.3991 142.7657 0002129  73.8164 286.3266 14.34217513337819
IRIDIUM 181             
1 56726U 23068S   25176.33740496  .00000178  00000+0  46752-4 0  9995
2 56726  86.4519 205.8307 0001756  91.4372 268.7030 14.43309338110962
IRIDIUM 177             
1 56727U 23068T   25176.31849640  .00001086  00000+0  13937-3 0  9992
2 56727  86.1985 138.2703 0002412  83.8840 276.2656 14.80228162113575
IRIDIUM 174             
1 56728U 23068U   25176.32235635  .00000620  00000+0  94379-4 0  9990
2 56728  86.6121 142.8919 0002997  94.5293 265.6266 14.72253490113518
IRIDIUM 178             
1 56729U 23068V   25176.44279815  .00000331  00000+0  40118-4 0  9993
2 56729  86.6567 174.3884 0002716  92.2753 267.8780 14.80231417113596
IRIDIUM 179             
1 56730U 23068W   25176.09941350  .00000330  00000+0  40006-4 0  9991
2 56730  86.6812 182.4252 0002611  88.6806 271.4715 14.80232296113542
